CAS-2T & KS-1Q
1 41847U 16066G   22096.42360102  .00001470  00000-0  22850-3 0  9992
2 41847  98.5579 161.1499 0365265  65.3928 298.4853 14.38467180283992
NAYIF-1 (EO-88)
1 42017U 17008BX  22096.52113705  .00020704  00000-0  66989-3 0  9997
2 42017  97.2756 163.7847 0006526 138.3085 221.8656 15.32057986286052
MAX VALIER SAT
1 42778U 17036P   22096.07766217  .00009986  00000-0  39481-3 0  9990
2 42778  97.2150 139.6962 0010474 213.9829 146.0739 15.25619944265863
FOX-1B (AO-91)
1 43017U 17073E   22096.28810210  .00005997  00000-0  45308-3 0  9997
2 43017  97.6828 353.4257 0252425  64.2200 298.4827 14.80716424236435
FOX-1D (AO-92)
1 43137U 18004AC  22096.48182449  .00013136  00000-0  48608-3 0  9993
2 43137  97.3722 172.3542 0006798 251.8393 108.2106 15.27785536235350
CANX-2
1 32790U 08021H   22096.37498982  .00002347  00000-0  25574-3 0  9993
2 32790  97.6615  68.1507 0015017 115.3189 244.9586 14.88830417755634
AIST-2 (RS-43)
1 39133U 13015D   22096.58971177  .00002823  00000-0  20516-3 0  9995
2 39133  64.8728 136.5065 0025170 311.1804 172.5381 15.05719324492295
NANOSATC-BR1
1 40024U 14033Q   22096.35936135  .00004061  00000-0  41386-3 0  9991
2 40024  97.9797  39.0546 0010507 287.8250  72.1822 14.91231210423232
QB50P1
1 40025U 14033R   22096.55022459  .00003647  00000-0  38280-3 0  9997
2 40025  97.9555  33.4341 0010849 297.7339  62.2777 14.90098116423057
QB50P2
1 40032U 14033Y   22096.54882385  .00003716  00000-0  39519-3 0  9999
2 40032  97.9343  29.0770 0010226 295.3657  64.6500 14.89559431422917
PERSEUS-M2
1 40037U 14033AD  22096.50857003  .00001462  00000-0  16952-3 0  9991
2 40037  97.8959  19.1482 0013307 318.9457  41.0757 14.86941580422434
PERSEUS-M1
1 40039U 14033AF  22096.34991792  .00001432  00000-0  16770-3 0  9994
2 40039  97.8868  16.8827 0013140 318.4001  41.6213 14.86554736422297
POLYITAN-1
1 40042U 14033AJ  22096.56359500  .00004713  00000-0  49344-3 0  9995
2 40042  97.9660  34.5463 0012884 288.0586  71.9227 14.90040187422947
TIGRISAT
1 40043U 14033AK  22096.51950001  .00001332  00000-0  20028-3 0  9996
2 40043  97.6587 289.6574 0060146  30.7419 329.7292 14.74839157419026
UKUBE-1
1 40074U 14037F   22096.46844254  .00003008  00000-0  35890-3 0  9995
2 40074  98.3933 333.3481 0004901 148.5488 211.6009 14.85085382419387
FIREBIRD-3
1 40377U 15003B   22096.54774671  .00017396  00000-0  55925-3 0  9995
2 40377  99.1109 305.5544 0105719 268.2444  90.6678 15.27017471397438
FIREBIRD-4
1 40378U 15003C   22096.57753757  .00018580  00000-0  59549-3 0  9993
2 40378  99.1112 305.7855 0105625 267.8673  91.0462 15.27101014397449
GRIFEX
1 40379U 15003D   22096.54137314  .00011508  00000-0  42649-3 0  9992
2 40379  99.1189 292.3972 0119249 308.1947  50.8591 15.21354490396688
EXOCUBE
1 40380U 15003E   22096.49616474  .00007612  00000-0  30311-3 0  9991
2 40380  99.1254 285.5151 0126249 331.2025  28.2273 15.18517422396237
DEORBITSAIL
1 40719U 15032E   22096.62567612  .00003191  00000-0  44813-3 0  9993
2 40719  97.7920 337.3374 0014679 235.2524 124.7306 14.78020409363276
ATHENOXAT-1
1 41168U 15077C   22096.55951438  .00021254  00000-0  94951-3 0  9994
2 41168  14.9913 262.5269 0010530 311.8354 100.2385 15.18904909349354
HORYU-IV
1 41340U 16012D   22096.38518736  .00004756  00000-0  34037-3 0  9994
2 41340  31.0043  99.1979 0013836 203.9174 156.0820 15.02764024336876
3CAT-2
1 41732U 16051B   22096.61716615  .00015887  00000-0  51876-3 0  9991
2 41732  97.3835  19.8663 0011931 178.0381 302.6694 15.31773906314325
INS-1B
1 41954U 17008G   22096.12931885  .00016622  00000-0  58420-3 0  9994
2 41954  97.2654 157.5862 0009545 129.8983 230.3098 15.29399117285686
DIDO-2
1 42000U 17008BE  22096.12655146  .00010216  00000-0  38312-3 0  9991
2 42000  97.2644 157.2695 0008801 147.3315 212.8470 15.27389448285028
PEASSS
1 42015U 17008BV  22096.42626930  .00014193  00000-0  49390-3 0  9995
2 42015  97.2702 161.0136 0006845 141.8823 218.2903 15.29780550285753
UCLSAT
1 42765U 17036A   22096.39263328  .00014596  00000-0  53879-3 0  9996
2 42765  97.2069 141.3723 0009263 210.3824 149.6881 15.27819059266840
LITUANICASAT-2
1 42768U 17036D   22096.37132071  .00027964  00000-0  91263-3 0  9999
2 42768  97.2156 143.4447 0011947 196.9646 163.1198 15.31670971266204
AALTO-1
1 42775U 17036L   22096.39067877  .00009038  00000-0  36987-3 0  9994
2 42775  97.2071 136.8496 0012030 214.2473 145.7990 15.24475579265792
URSA MAIOR
1 42776U 17036M   22096.32950308  .00009775  00000-0  39459-3 0  9993
2 42776  97.2082 137.4531 0011828 213.0180 147.0320 15.24916033265818
COMPASS-2
1 42777U 17036N   22096.08429360  .00021699  00000-0  75339-3 0  9992
2 42777  97.2141 142.8177 0010317 199.9115 160.1724 15.29734879266077
DIAMOND RED
1 42783U 17036U   22096.55560884  .00010581  00000-0  41257-3 0  9998
2 42783  97.2090 139.8597 0010037 217.2852 142.7691 15.26073100265977
PEGASUS
1 42784U 17036V   22096.34249388  .00013299  00000-0  50166-3 0  9997
2 42784  97.2085 140.6614 0009899 214.6996 145.3599 15.27117106266003
DIAMOND GREEN
1 42785U 17036W   22096.55459120  .00010994  00000-0  42855-3 0  9993
2 42785  97.2090 139.9198 0009932 217.5729 142.4817 15.26072481266042
DIAMOND BLUE
1 42786U 17036X   22096.55342537  .00010675  00000-0  41607-3 0  9997
2 42786  97.2091 139.9112 0009917 217.8930 142.1612 15.26083858266040
NUDTSAT
1 42787U 17036Y   22096.59124016  .00023886  00000-0  80554-3 0  9994
2 42787  97.2120 144.5204 0009364 200.6522 159.4328 15.30669875266095
SUCHAI 
1 42788U 17036Z   22096.34687566  .00015773  00000-0  57042-3 0  9994
2 42788  97.2093 142.1211 0009479 209.2260 150.8451 15.28475303266166
SKCUBE 
1 42789U 17036AA  22096.57510550  .00013979  00000-0  51413-3 0  9990
2 42789  97.2091 141.8808 0009454 209.2002 150.8711 15.27946488266097
VZLUSAT-1
1 42790U 17036AB  22096.39774610  .00020931  00000-0  70837-3 0  9998
2 42790  97.2119 144.3115 0008906 201.2500 158.8373 15.30586471266217
ROBUSTA-1B
1 42792U 17036AD  22096.09422313  .00015219  00000-0  55261-3 0  9994
2 42792  97.2088 141.9294 0008987 210.7529 149.3186 15.28354711266067
CICERO-7
1 43143U 18004AJ  22096.44006392  .00020176  00000-0  67069-3 0  9992
2 43143  97.3765 175.5137 0004897 247.4238 112.6485 15.31203843235547
D-SAT
1 42794U 17036AF  22096.54124540  .00003704  00000-0  31873-3 0  9996
2 42794  97.4541 105.7581 0122960 326.5627  32.7871 14.92271849260751
CORVUS-BC2
1 42846U 17042X   22096.55916703  .00001922  00000-0  19143-3 0  9998
2 42846  97.4332 317.9044 0008198 232.1313 127.9166 14.92673346257554
CORVUS-BC1
1 42847U 17042Y   22096.57778583  .00001788  00000-0  17796-3 0  9995
2 42847  97.4334 318.2146 0007789 230.3242 129.7292 14.92777213257569
CORVUS-BC3
1 43118U 18004H   22096.20983608  .00009293  00000-0  36222-3 0  9996
2 43118  97.3670 169.8919 0008050 254.4798 105.5552 15.26144681235197
GOMX4-B
1 43196U 18015E   22096.37859883  .00005326  00000-0  20894-3 0  9990
2 43196  97.5217 235.1938 0016634 313.6751  46.3107 15.26058352232165
GOMX4-A
1 43197U 18015F   22096.56119596  .00011187  00000-0  41719-3 0  9993
2 43197  97.5202 235.9996 0016304 312.5071 114.0958 15.27474833232242
APRIZESAT-5 
1 37792U 11044E   22096.56244643  .00000707  00000-0  10926-3 0  9996
2 37792  98.3366 329.8359 0056826 232.6262 126.9764 14.75659152572390
APRIZESAT-6
1 37793U 11044F   22096.56426597  .00000617  00000-0  10405-3 0  9999
2 37793  98.4101 306.1770 0045483 283.0462 129.6525 14.72695498571285
APRIZESAT-7
1 39416U 13066A   22096.49284208  .00001076  00000-0  13275-3 0  9990
2 39416  97.5674  80.2543 0039604 233.9047 125.8498 14.84314874453367
APRIZESAT-8
1 39425U 13066K   22096.52269875  .00001054  00000-0  13827-3 0  9996
2 39425  97.6199  71.4309 0050075 276.5176  83.0338 14.81492570452312
BUGSAT-1 (TITA)
1 40014U 14033E   22096.59254897  .00003829  00000-0  34111-3 0  9993
2 40014  98.1388  92.0948 0029684 275.7604  84.0232 14.96351709425397
SAUDISAT-4
1 40016U 14033G   22096.55244996  .00000524  00000-0  82705-4 0  9992
2 40016  97.6460 295.3379 0048579  16.3088 343.9672 14.75486549419799
TABLETSAT-AURORA
1 40017U 14033H   22096.46348530  .00003933  00000-0  36777-3 0  9996
2 40017  98.1160  75.7884 0021572 292.9488  66.9445 14.94574358424810
APRIZESAT-9
1 40018U 14033J   22096.46625814  .00000672  00000-0  11491-3 0  9993
2 40018  97.7101 270.9534 0072598  84.8504 276.0984 14.70191205418076
APRIZESAT-10
1 40019U 14033K   22096.41216923  .00000749  00000-0  13406-3 0  9999
2 40019  97.7595 260.4118 0085240 125.8009 235.1157 14.67235807417238
AISAT
1 40054U 14034B   22096.40952663  .00004521  00000-0  61568-3 0  9990
2 40054  98.3531 264.9957 0012668 181.3445 178.7734 14.79202647418827
COSMOS-2407 [+]
1 28380U 04028A   22096.52495983  .00000088  00000-0  74511-4 0  9997
2 28380  82.9588 129.6886 0038124 217.0011 142.8513 13.76108490889270
COSMOS-2414 [+]
1 28521U 05002A   22096.57714645  .00000103  00000-0  73310-4 0  9995
2 28521  82.9468 122.5865 0041077  20.9114 339.3715 13.87650897871586
COSMOS-2463 [+]
1 36519U 10017A   22096.57156719  .00000047  00000-0  34709-4 0  9991
2 36519  82.9569 295.6069 0037394  63.3051 349.4164 13.71470131597848
NOAA-15
1 25338U 98030A   22096.57600855  .00000159  00000-0  84627-4 0  9992
2 25338  98.6525 127.0247 0011177 142.8163 217.3793 14.26105204242772
NOAA-18
1 28654U 05018A   22096.53185653  .00000224  00000-0  14463-3 0  9993
2 28654  98.9542 167.0111 0014624 170.9866 189.1571 14.12708846869821
NOAA-19
1 33591U 09005A   22096.52499580  .00000163  00000-0  11330-3 0  9997
2 33591  99.1569 129.1222 0014332  33.9116 326.2969 14.12545435678032
SARAL
1 39086U 13009A   22096.56331464  .00000101  00000-0  53911-4 0  9995
2 39086  98.5489 283.2668 0002129 102.1447 257.9975 14.32064404476198
HODOYOSHI-1
1 40299U 14070B   22096.64228727  .00007942  00000-0  30971-3 0  9998
2 40299  97.2496 166.9032 0013436  38.8711 117.9585 15.26116923412105
NUSAT-1
1 41557U 16033B   22096.54991310  .00018598  00000-0  59032-3 0  9999
2 41557  97.3846 194.2495 0010409 272.5750 184.6511 15.32667386326360
